[Satellite]
VERSION=1.1
NAME=MOLNIYA 3-31
NICKNAME=MOLNIYA 3-31
TLE1=1 17328U 87008A   19313.83180527  .00000457  00000-0  00000-0 0  9991
TLE2=2 17328  63.8344 227.4433 6709826 262.7816  22.6497  2.00555436236793
STATUS=0
